0 COSMOS 2251 DEB
1 33799U 93036AQ  13282.70226495  .00001709  00000-0  56041-3 0  9113
2 33799 074.0431 135.1011 0045002 240.7267 192.7482 14.38576345244169
0 COSMOS 2251 DEB
1 33799U 93036AQ  13287.03148375  .00003328  00000-0  10826-2 0  9135
2 33799 074.0433 127.1253 0044823 231.6433 293.4208 14.38593832244787
0 COSMOS 2251 DEB
1 33799U 93036AQ  13289.50826410  .00003936  00000-0  12781-2 0  9140
2 33799 074.0429 122.5610 0044682 226.4896 160.5871 14.38615101245141
0 COSMOS 2251 DEB
1 33799U 93036AQ  13291.60154969  .00003832  00000-0  12446-2 0  9151
2 33799 074.0428 118.7040 0044607 222.0613 201.8477 14.38627320245440
0 COSMOS 2251 DEB
1 33799U 93036AQ  13293.76553228  .00004172  00000-0  13537-2 0  9162
2 33799 074.0435 114.7152 0044473 217.7339 249.1073 14.38639524245755
0 COSMOS 2251 DEB
1 33799U 93036AQ  13295.85333350  .00004579  00000-0  14847-2 0  9173
2 33799 074.0439 110.8675 0044328 213.4258 262.0499 14.38654321246050
